SENTINEL-1A             
1 39634U 14016A   26186.26462370  .00000077  00000+0  25979-4 0  9999
2 39634  98.1778 193.5337 0001379  86.0922 274.0435 14.59200220652659
SENTINEL-1C             
1 62261U 24235A   26186.30401464 -.00000112  00000+0 -14098-4 0  9999
2 62261  98.1823 193.3537 0001291  90.6275 269.5073 14.59197631 84058
SENTINEL-1D             
1 66315U 25251A   26185.99559531 -.00000119  00000+0 -15564-4 0  9991
2 66315  98.1835 193.1045 0001306  90.7095 269.4254 14.59197335 35322
